[{"OBJECT_NAME":"RAY 1.0","OBJECT_ID":"2025-009U","EPOCH":"2026-03-09T20:09:58.488192","MEAN_MOTION":15.20062713,"ECCENTRICITY":0.00072905,"INCLINATION":97.4036,"RA_OF_ASC_NODE":148.9866,"ARG_OF_PERICENTER":261.8547,"MEAN_ANOMALY":98.1862,"EPHEMERIS_TYPE":0,"CLASSIFICATION_TYPE":"U","NORAD_CAT_ID":62627,"ELEMENT_SET_NO":999,"REV_AT_EPOCH":6358,"BSTAR":0.00023774962,"MEAN_MOTION_DOT":5.065e-5,"MEAN_MOTION_DDOT":0},{"OBJECT_NAME":"FOSSASAT-2E18 (TAT-A)","OBJECT_ID":"2025-009CF","EPOCH":"2026-03-09T17:01:45.499296","MEAN_MOTION":15.20457243,"ECCENTRICITY":0.00051914,"INCLINATION":97.4018,"RA_OF_ASC_NODE":148.8446,"ARG_OF_PERICENTER":339.5047,"MEAN_ANOMALY":20.598,"EPHEMERIS_TYPE":0,"CLASSIFICATION_TYPE":"U","NORAD_CAT_ID":62686,"ELEMENT_SET_NO":999,"REV_AT_EPOCH":6357,"BSTAR":0.00019425046,"MEAN_MOTION_DOT":4.172e-5,"MEAN_MOTION_DDOT":0}]
